NORAD_CAT_ID,OBJECT_NAME,OBJECT_TYPE,EPOCH,MEAN_MOTION,ECCENTRICITY,INCLINATION,RA_OF_ASC_NODE,ARG_OF_PERICENTER,MEAN_ANOMALY,BSTAR,MEAN_MOTION_DOT,MEAN_MOTION_DDOT,TLE_LINE0,TLE_LINE1,TLE_LINE2,SEMIMAJOR_AXIS,PERIOD,APOGEE,PERIGEE,DECAYED
53833.0,STARLINK-4771,PAYLOAD,2023-05-30 07:00:00,15.08837785,0.000101,53.2148,177.7964,90.4809,269.6299,0.00015629,2.2e-05,0.0,0 STARLINK-4771,1 53833U 22114R   23150.29167424  .00002200  00000-0  15629-3 0  9998,2 53833  53.2148 177.7964 0001010  90.4809 269.6299 15.08837785 39692,6917.887,95.438,540.451,539.053,0.0
53833.0,STARLINK-4771,PAYLOAD,2023-05-31 06:50:47,15.08842299,0.0001016,53.2156,173.3357,93.3132,266.7977,7.0288e-05,8.31e-06,0.0,0 STARLINK-4771,1 53833U 22114R   23151.28527243  .00000831  00000-0  70288-4 0  9998,2 53833  53.2156 173.3357 0001016  93.3132 266.7977 15.08842299 39301,6917.873,95.437,540.441,539.036,0.0
53833.0,STARLINK-4771,PAYLOAD,2023-06-01 01:55:25,15.0883532,0.0001013,53.2154,169.7678,67.4596,292.6503,5.9136e-05,6.53e-06,0.0,0 STARLINK-4771,1 53833U 22114R   23152.08015840  .00000653  00000-0  59136-4 0  9993,2 53833  53.2154 169.7678 0001013  67.4596 292.6503 15.08835320 39420,6917.895,95.438,540.46,539.059,0.0
53833.0,STARLINK-4771,PAYLOAD,2023-06-01 06:41:35,15.08835021,0.0001005,53.2154,168.8753,78.9555,281.155,4.6732e-05,4.56e-06,0.0,0 STARLINK-4771,1 53833U 22114R   23152.27887892  .00000456  00000-0  46732-4 0  9997,2 53833  53.2154 168.8753 0001005  78.9555 281.1550 15.08835021 39992,6917.896,95.438,540.456,539.065,0.0
53833.0,STARLINK-4771,PAYLOAD,2023-06-02 08:07:45,15.08840572,0.0001043,53.2153,164.117,84.7226,275.3885,7.5478e-05,9.14e-06,0.0,0 STARLINK-4771,1 53833U 22114R   23153.33871612  .00000914  00000-0  75478-4 0  9996,2 53833  53.2153 164.1170 0001043  84.7226 275.3885 15.08840572 39617,6917.879,95.438,540.465,539.022,0.0
53833.0,STARLINK-4771,PAYLOAD,2023-06-02 17:40:03,15.08840238,0.0001049,53.2154,162.3329,88.0849,272.0263,8.2327e-05,1.023e-05,0.0,0 STARLINK-4771,1 53833U 22114R   23153.73615680  .00001023  00000-0  82327-4 0  9994,2 53833  53.2154 162.3329 0001049  88.0849 272.0263 15.08840238 40219,6917.88,95.438,540.47,539.019,0.0
53833.0,STARLINK-4771,PAYLOAD,2023-06-03 09:33:55,15.08839506,0.0001059,53.2153,159.3591,88.3184,271.7929,0.00011665,1.569e-05,0.0,0 STARLINK-4771,1 53833U 22114R   23154.39855813  .00001569  00000-0  11665-3 0  9992,2 53833  53.2153 159.3591 0001059  88.3184 271.7929 15.08839506 39771,6917.882,95.438,540.48,539.014,0.0
53833.0,STARLINK-4771,PAYLOAD,2023-06-03 17:30:51,15.08839939,0.0001055,53.2153,157.8723,88.2493,271.862,9.0289e-05,1.149e-05,0.0,0 STARLINK-4771,1 53833U 22114R   23154.72975846  .00001149  00000-0  90289-4 0  9992,2 53833  53.2153 157.8723 0001055  88.2493 271.8620 15.08839939 40365,6917.881,95.438,540.475,539.016,0.0
53833.0,STARLINK-4771,PAYLOAD,2023-06-04 09:24:42,15.08842396,0.0001068,53.2155,154.899,87.1888,272.9226,6.6667e-05,7.73e-06,0.0,0 STARLINK-4771,1 53833U 22114R   23155.39215709  .00000773  00000-0  66667-4 0  9996,2 53833  53.2155 154.8990 0001068  87.1888 272.9226 15.08842396 40466,6917.873,95.437,540.477,538.999,0.0
53833.0,STARLINK-4771,PAYLOAD,2023-06-05 04:29:19,15.08841971,0.000107,53.2155,151.3305,86.3956,273.7158,7.005e-05,8.27e-06,0.0,0 STARLINK-4771,1 53833U 22114R   23156.18703618  .00000827  00000-0  70050-4 0  9996,2 53833  53.2155 151.3305 0001070  86.3956 273.7158 15.08841971 40043,6917.874,95.437,540.48,538.999,0.0
53833.0,STARLINK-4771,PAYLOAD,2023-06-05 09:15:29,15.0884349,0.000108,53.2154,150.4386,85.5272,274.5843,7.7142e-05,9.4e-06,0.0,0 STARLINK-4771,1 53833U 22114R   23156.38575469  .00000940  00000-0  77142-4 0  9994,2 53833  53.2154 150.4386 0001080  85.5272 274.5843 15.08843490 40615,6917.87,95.437,540.482,538.988,0.0
53833.0,STARLINK-4771,PAYLOAD,2023-06-05 17:12:25,15.08841773,0.0001079,53.2154,148.9517,85.2628,274.8487,6.197e-05,6.99e-06,0.0,0 STARLINK-4771,1 53833U 22114R   23156.71695604  .00000699  00000-0  61970-4 0  9998,2 53833  53.2154 148.9517 0001079  85.2628 274.8487 15.08841773 40667,6917.875,95.437,540.486,538.994,0.0
53833.0,STARLINK-4771,PAYLOAD,2023-06-05 23:33:57,15.08837758,0.0001103,53.2153,147.7626,84.9549,275.1569,3.2243e-05,2.25e-06,0.0,0 STARLINK-4771,1 53833U 22114R   23156.98191943  .00000225  00000-0  32243-4 0  9990,2 53833  53.2153 147.7626 0001103  84.9549 275.1569 15.08837758 40168,6917.887,95.438,540.515,538.989,0.0
53833.0,STARLINK-4771,PAYLOAD,2023-06-06 09:06:16,15.08839528,0.0001118,53.2154,145.9779,89.5991,270.5129,4.163e-05,3.75e-06,0.0,0 STARLINK-4771,1 53833U 22114R   23157.37935787  .00000375  00000-0  41630-4 0  9992,2 53833  53.2154 145.9779 0001118  89.5991 270.5129 15.08839528 40760,6917.882,95.438,540.52,538.973,0.0
53833.0,STARLINK-4771,PAYLOAD,2023-06-07 08:57:03,15.08842492,0.0001104,53.2155,141.5171,91.1632,268.9487,5.59e-05,6.02e-06,0.0,0 STARLINK-4771,1 53833U 22114R   23158.37295543  .00000602  00000-0  55900-4 0  9990,2 53833  53.2155 141.5171 0001104  91.1632 268.9487 15.08842492 40374,6917.873,95.437,540.502,538.974,0.0
53833.0,STARLINK-4771,PAYLOAD,2023-06-07 15:18:36,15.08837423,0.000113,53.2155,140.3275,91.1995,268.9126,1.3609e-05,-7.1e-07,0.0,0 STARLINK-4771,1 53833U 22114R   23158.63792003 -.00000071  00000-0  13609-4 0  9993,2 53833  53.2155 140.3275 0001130  91.1995 268.9126 15.08837423 40410,6917.888,95.438,540.535,538.972,0.0
53833.0,STARLINK-4771,PAYLOAD,2023-06-08 05:37:04,15.08838063,0.0001087,53.2155,137.6515,89.8693,270.2424,6.1115e-05,6.85e-06,0.0,0 STARLINK-4771,1 53833U 22114R   23159.23407965  .00000685  00000-0  61115-4 0  9995,2 53833  53.2155 137.6515 0001087  89.8693 270.2424 15.08838063 41044,6917.886,95.438,540.503,538.999,0.0
53833.0,STARLINK-4771,PAYLOAD,2023-06-08 15:09:23,15.0883698,0.000107,53.2154,135.8673,87.6528,272.4586,4.5939e-05,4.43e-06,0.0,0 STARLINK-4771,1 53833U 22114R   23159.63152142  .00000443  00000-0  45939-4 0  9991,2 53833  53.2154 135.8673 0001070  87.6528 272.4586 15.08836980 41109,6917.89,95.438,540.495,539.014,0.0
53833.0,STARLINK-4771,PAYLOAD,2023-06-09 08:38:38,15.08837107,0.0001093,53.2154,132.5966,89.4779,270.6339,1.6381e-05,-2.7e-07,0.0,0 STARLINK-4771,1 53833U 22114R   23160.36016442 -.00000027  00000-0  16381-4 0  9993,2 53833  53.2154 132.5966 0001093  89.4779 270.6339 15.08837107 40670,6917.889,95.438,540.51,538.998,0.0
53833.0,STARLINK-4771,PAYLOAD,2023-06-09 15:00:10,15.08835247,0.0001091,53.2154,131.4071,88.0894,272.0223,1.2591e-05,-8.7e-07,0.0,0 STARLINK-4771,1 53833U 22114R   23160.62512637 -.00000087  00000-0  12591-4 0  9994,2 53833  53.2154 131.4071 0001091  88.0894 272.0223 15.08835247 41252,6917.895,95.438,540.515,539.005,0.0
53833.0,STARLINK-4771,PAYLOAD,2023-06-10 06:54:02,15.08839768,0.0001121,53.2157,128.4339,92.9151,267.1969,6.604e-05,7.63e-06,0.0,0 STARLINK-4771,1 53833U 22114R   23161.28752419  .00000763  00000-0  66040-4 0  9999,2 53833  53.2157 128.4339 0001121  92.9151 267.1969 15.08839768 41357,6917.881,95.438,540.522,538.971,0.0
53833.0,STARLINK-4771,PAYLOAD,2023-06-10 21:12:30,15.08835015,0.0001164,53.2159,125.7575,92.0798,268.0327,6.4588e-05,7.4e-06,0.0,0 STARLINK-4771,1 53833U 22114R   23161.88368892  .00000740  00000-0  64588-4 0  9993,2 53833  53.2159 125.7575 0001164  92.0798 268.0327 15.08835015 41445,6917.896,95.438,540.566,538.955,0.0
53833.0,STARLINK-4771,PAYLOAD,2023-06-11 05:09:26,15.08840999,0.0001179,53.216,124.2708,92.63,267.4827,8.9827e-05,1.142e-05,0.0,0 STARLINK-4771,1 53833U 22114R   23162.21488534  .00001142  00000-0  89827-4 0  9997,2 53833  53.2160 124.2708 0001179  92.6300 267.4827 15.08840999 41490,6917.877,95.437,540.558,538.927,0.0
53833.0,STARLINK-4771,PAYLOAD,2023-06-11 21:03:17,15.08836211,0.000127,53.216,121.2969,86.8364,273.2773,6.4963e-05,7.46e-06,0.0,0 STARLINK-4771,1 53833U 22114R   23162.87729063  .00000746  00000-0  64963-4 0  9997,2 53833  53.2160 121.2969 0001270  86.8364 273.2773 15.08836211 41591,6917.892,95.438,540.636,538.878,0.0
53833.0,STARLINK-4771,PAYLOAD,2023-06-12 03:24:50,15.08838612,0.0001281,53.2161,120.1078,85.7583,274.3556,6.6965e-05,7.78e-06,0.0,0 STARLINK-4771,1 53833U 22114R   23163.14224942  .00000778  00000-0  66965-4 0  9993,2 53833  53.2161 120.1078 0001281  85.7583 274.3556 15.08838612 41097,6917.885,95.438,540.636,538.863,0.0
53833.0,STARLINK-4771,PAYLOAD,2023-06-12 06:35:36,15.08841176,0.0001303,53.2161,119.5132,84.7622,275.3519,4.724e-05,4.64e-06,0.0,0 STARLINK-4771,1 53833U 22114R   23163.27472837  .00000464  00000-0  47240-4 0  9992,2 53833  53.2161 119.5132 0001303  84.7622 275.3519 15.08841176 41659,6917.877,95.437,540.643,538.84,0.0
53833.0,STARLINK-4771,PAYLOAD,2023-06-12 14:32:32,15.08834901,0.0001225,53.2161,118.0258,90.3296,269.7837,0.00012607,1.719e-05,0.0,0 STARLINK-4771,1 53833U 22114R   23163.60593016  .00001719  00000-0  12607-3 0  9994,2 53833  53.2161 118.0258 0001225  90.3296 269.7837 15.08834901 41709,6917.896,95.438,540.608,538.914,0.0
53833.0,STARLINK-4771,PAYLOAD,2023-06-13 03:15:37,15.08841717,0.0001254,53.2162,115.647,87.5119,272.6017,4.6205e-05,4.48e-06,0.0,0 STARLINK-4771,1 53833U 22114R   23164.13584736  .00000448  00000-0  46205-4 0  9992,2 53833  53.2162 115.6470 0001254  87.5119 272.6017 15.08841717 41787,6917.875,95.437,540.608,538.873,0.0
53833.0,STARLINK-4771,PAYLOAD,2023-06-14 03:06:24,15.08835518,0.0001193,53.2163,111.1877,86.1907,273.9222,4.1316e-05,3.7e-06,0.0,0 STARLINK-4771,1 53833U 22114R   23165.12945202  .00000370  00000-0  41316-4 0  9993,2 53833  53.2163 111.1877 0001193  86.1907 273.9222 15.08835518 41393,6917.894,95.438,540.584,538.934,0.0
53833.0,STARLINK-4771,PAYLOAD,2023-06-14 06:17:10,15.08841898,0.0001191,53.216,110.5911,85.3429,274.7699,4.0932e-05,3.64e-06,0.0,0 STARLINK-4771,1 53833U 22114R   23165.26192815  .00000364  00000-0  40932-4 0  9998,2 53833  53.2160 110.5911 0001191  85.3429 274.7699 15.08841898 41957,6917.875,95.437,540.564,538.916,0.0
